{
  "type": "FeatureCollection",
  "features": [
    {
      "type": "Feature",
      "properties": {
        "norad_id": 31449,
        "name": "FENGYUN 1C DEB",
        "group": "fengyun-1c-debris",
        "lat": 21.1727189676731,
        "lon": -125.75308731517333,
        "alt_km": 783.8206589745769,
        "timestamp": "2025-12-18T10:51:26.089466+00:00",
        "meta_object_name": "FENGYUN 1C DEB",
        "meta_object_id": "1999-025BUM",
        "meta_epoch": "2025-12-10T21:12:43.510752",
        "meta_mean_motion": 14.33705066,
        "meta_eccentricity": 0.0144053,
        "meta_inclination": 98.5553,
        "meta_ra_of_asc_node": 43.4188,
        "meta_arg_of_pericenter": 274.279,
        "meta_mean_anomaly": 84.1945,
        "meta_ephemeris_type": 0,
        "meta_classification_type": "U",
        "meta_norad_cat_id": 31449,
        "meta_element_set_no": 999,
        "meta_rev_at_epoch": 97610,
        "meta_bstar": 0.00033048,
        "meta_mean_motion_dot": 9.81e-06,
        "meta_mean_motion_ddot": 0,
        "tle_line1": "1 31449U 99025BUM 25344.88383693  .00000981  00000+0  33048-3 0  9990",
        "tle_line2": "2 31449  98.5553  43.4188 0144053 274.2790  84.1945 14.33705066976103"
      },
      "geometry": {
        "type": "Point",
        "coordinates": [
          -125.75308731517333,
          21.1727189676731
        ]
      }
    },
    {
      "type": "Feature",
      "properties": {
        "norad_id": 31451,
        "name": "FENGYUN 1C DEB",
        "group": "fengyun-1c-debris",
        "lat": -58.169355504706054,
        "lon": -159.9781720958796,
        "alt_km": 837.7341704860828,
        "timestamp": "2025-12-18T10:51:26.089476+00:00",
        "meta_object_name": "FENGYUN 1C DEB",
        "meta_object_id": "1999-025BUP",
        "meta_epoch": "2025-12-17T01:35:52.740960",
        "meta_mean_motion": 14.13630438,
        "meta_eccentricity": 0.00314143,
        "meta_inclination": 98.7632,
        "meta_ra_of_asc_node": 33.0517,
        "meta_arg_of_pericenter": 198.9237,
        "meta_mean_anomaly": 191.5319,
        "meta_ephemeris_type": 0,
        "meta_classification_type": "U",
        "meta_norad_cat_id": 31451,
        "meta_element_set_no": 999,
        "meta_rev_at_epoch": 96071,
        "meta_bstar": 0.00034950868,
        "meta_mean_motion_dot": 6.19e-06,
        "meta_mean_motion_ddot": 0,
        "tle_line1": "1 31451U 99025BUP 25351.06658265  .00000619  00000+0  34951-3 0  9993",
        "tle_line2": "2 31451  98.7632  33.0517 0031414 198.9237 191.5319 14.13630438960717"
      },
      "geometry": {
        "type": "Point",
        "coordinates": [
          -159.9781720958796,
          -58.169355504706054
        ]
      }
    },
    {
      "type": "Feature",
      "properties": {
        "norad_id": 31452,
        "name": "FENGYUN 1C DEB",
        "group": "fengyun-1c-debris",
        "lat": 11.404389344203514,
        "lon": 160.9872924368532,
        "alt_km": 826.5857207192203,
        "timestamp": "2025-12-18T10:51:26.089487+00:00",
        "meta_object_name": "FENGYUN 1C DEB",
        "meta_object_id": "1999-025BUQ",
        "meta_epoch": "2025-12-17T05:13:17.668704",
        "meta_mean_motion": 14.15174584,
        "meta_eccentricity": 0.00409624,
        "meta_inclination": 98.6577,
        "meta_ra_of_asc_node": 338.0277,
        "meta_arg_of_pericenter": 115.448,
        "meta_mean_anomaly": 245.0941,
        "meta_ephemeris_type": 0,
        "meta_classification_type": "U",
        "meta_norad_cat_id": 31452,
        "meta_element_set_no": 999,
        "meta_rev_at_epoch": 96269,
        "meta_bstar": 0.00032143342,
        "meta_mean_motion_dot": 5.87e-06,
        "meta_mean_motion_ddot": 0,
        "tle_line1": "1 31452U 99025BUQ 25351.21756561  .00000587  00000+0  32143-3 0  9994",
        "tle_line2": "2 31452  98.6577 338.0277 0040962 115.4480 245.0941 14.15174584962690"
      },
      "geometry": {
        "type": "Point",
        "coordinates": [
          160.9872924368532,
          11.404389344203514
        ]
      }
    },
    {
      "type": "Feature",
      "properties": {
        "norad_id": 31455,
        "name": "FENGYUN 1C DEB",
        "group": "fengyun-1c-debris",
        "lat": 69.38110552290327,
        "lon": -43.208184280874136,
        "alt_km": 719.004358252424,
        "timestamp": "2025-12-18T10:51:26.089497+00:00",
        "meta_object_name": "FENGYUN 1C DEB",
        "meta_object_id": "1999-025BUT",
        "meta_epoch": "2025-12-15T05:58:31.432224",
        "meta_mean_motion": 14.11432558,
        "meta_eccentricity": 0.02185525,
        "meta_inclination": 98.5743,
        "meta_ra_of_asc_node": 337.3687,
        "meta_arg_of_pericenter": 44.1098,
        "meta_mean_anomaly": 317.7277,
        "meta_ephemeris_type": 0,
        "meta_classification_type": "U",
        "meta_norad_cat_id": 31455,
        "meta_element_set_no": 999,
        "meta_rev_at_epoch": 96139,
        "meta_bstar": 0.00031840513,
        "meta_mean_motion_dot": 6.8e-06,
        "meta_mean_motion_ddot": 0,
        "tle_line1": "1 31455U 99025BUT 25349.24897491  .00000680  00000+0  31841-3 0  9993",
        "tle_line2": "2 31455  98.5743 337.3687 0218552  44.1098 317.7277 14.11432558961398"
      },
      "geometry": {
        "type": "Point",
        "coordinates": [
          -43.208184280874136,
          69.38110552290327
        ]
      }
    },
    {
      "type": "Feature",
      "properties": {
        "norad_id": 31456,
        "name": "FENGYUN 1C DEB",
        "group": "fengyun-1c-debris",
        "lat": -31.00635654250843,
        "lon": 100.03546606765946,
        "alt_km": 715.3580529470328,
        "timestamp": "2025-12-18T10:51:26.089507+00:00",
        "meta_object_name": "FENGYUN 1C DEB",
        "meta_object_id": "1999-025BUU",
        "meta_epoch": "2025-12-17T13:21:30.732480",
        "meta_mean_motion": 14.42423971,
        "meta_eccentricity": 0.00676593,
        "meta_inclination": 98.5778,
        "meta_ra_of_asc_node": 93.9301,
        "meta_arg_of_pericenter": 299.6577,
        "meta_mean_anomaly": 59.7886,
        "meta_ephemeris_type": 0,
        "meta_classification_type": "U",
        "meta_norad_cat_id": 31456,
        "meta_element_set_no": 999,
        "meta_rev_at_epoch": 97536,
        "meta_bstar": 0.0006424571,
        "meta_mean_motion_dot": 2.138e-05,
        "meta_mean_motion_ddot": 0,
        "tle_line1": "1 31456U 99025BUU 25351.55660570  .00002138  00000+0  64246-3 0  9992",
        "tle_line2": "2 31456  98.5778  93.9301 0067659 299.6577  59.7886 14.42423971975368"
      },
      "geometry": {
        "type": "Point",
        "coordinates": [
          100.03546606765946,
          -31.00635654250843
        ]
      }
    },
    {
      "type": "Feature",
      "properties": {
        "norad_id": 31459,
        "name": "FENGYUN 1C DEB",
        "group": "fengyun-1c-debris",
        "lat": -53.617186850067604,
        "lon": -88.25064679226648,
        "alt_km": 817.3850108060415,
        "timestamp": "2025-12-18T10:51:26.089517+00:00",
        "meta_object_name": "FENGYUN 1C DEB",
        "meta_object_id": "1999-025BUX",
        "meta_epoch": "2025-12-12T23:44:38.705568",
        "meta_mean_motion": 14.44083824,
        "meta_eccentricity": 0.00940456,
        "meta_inclination": 98.1765,
        "meta_ra_of_asc_node": 255.2445,
        "meta_arg_of_pericenter": 130.906,
        "meta_mean_anomaly": 230.0325,
        "meta_ephemeris_type": 0,
        "meta_classification_type": "U",
        "meta_norad_cat_id": 31459,
        "meta_element_set_no": 999,
        "meta_rev_at_epoch": 64561,
        "meta_bstar": 0.0020176648,
        "meta_mean_motion_dot": 7.253e-05,
        "meta_mean_motion_ddot": 0,
        "tle_line1": "1 31459U 99025BUX 25346.98933687  .00007253  00000+0  20177-2 0  9995",
        "tle_line2": "2 31459  98.1765 255.2445 0094045 130.9060 230.0325 14.44083824645613"
      },
      "geometry": {
        "type": "Point",
        "coordinates": [
          -88.25064679226648,
          -53.617186850067604
        ]
      }
    },
    {
      "type": "Feature",
      "properties": {
        "norad_id": 31462,
        "name": "FENGYUN 1C DEB",
        "group": "fengyun-1c-debris",
        "lat": -27.789601168869186,
        "lon": -173.93652119987857,
        "alt_km": 832.8757638013376,
        "timestamp": "2025-12-18T10:51:26.089528+00:00",
        "meta_object_name": "FENGYUN 1C DEB",
        "meta_object_id": "1999-025BVA",
        "meta_epoch": "2025-12-17T00:11:35.659104",
        "meta_mean_motion": 14.13016034,
        "meta_eccentricity": 0.00322795,
        "meta_inclination": 98.6896,
        "meta_ra_of_asc_node": 9.2845,
        "meta_arg_of_pericenter": 192.0461,
        "meta_mean_anomaly": 232.8507,
        "meta_ephemeris_type": 0,
        "meta_classification_type": "U",
        "meta_norad_cat_id": 31462,
        "meta_element_set_no": 999,
        "meta_rev_at_epoch": 95916,
        "meta_bstar": 0.00031044723,
        "meta_mean_motion_dot": 5.39e-06,
        "meta_mean_motion_ddot": 0,
        "tle_line1": "1 31462U 99025BVA 25351.00805161  .00000539  00000+0  31045-3 0  9990",
        "tle_line2": "2 31462  98.6896   9.2845 0032279 192.0461 232.8507 14.13016034959168"
      },
      "geometry": {
        "type": "Point",
        "coordinates": [
          -173.93652119987857,
          -27.789601168869186
        ]
      }
    }
  ]
}